{"type": "FeatureCollection", "name": "abidjan_communes", "features": [{"type": "Feature", "properties": {"nom": "Abobo-Est", "name": "Abobo-Est", "area_id": "CIV_2_001ze", "area_name": "Abobo-Est", "parent_area_id": "CIV_1_01df", "area_level_label": "District Sanitaire"}, "geometry": {"type": "Polygon", "coordinates": [[[-4.0196031, 5.397623199999981], [-4.016182, 5.4104524], [-4.0241045, 5.441943099999989], [-4.016139, 5.460790399999989], [-4.0156162, 5.4606114], [-4.0145425, 5.460243899999979], [-4.0039339, 5.467691199999979], [-3.9600118, 5.465954099999982], [-3.9551204, 5.460955099999974], [-3.9545038, 5.4604008], [-3.9544748, 5.4603747], [-3.9728545, 5.4478724], [-3.9846058, 5.429824599999984], [-4.0061587, 5.3842271], [-4.0196031, 5.397623199999981]]]}}, {"type": "Feature", "properties": {"nom": "Abobo-Ouest", "name": "Abobo-Ouest", "area_id": "CIV_2_002ji", "area_name": "Abobo-Ouest", "parent_area_id": "CIV_1_01df", "area_level_label": "District Sanitaire"}, "geometry": {"type": "Polygon", "coordinates": [[[-4.0196031, 5.397623199999981], [-4.0316431, 5.4108742], [-4.0481397, 5.420625199999979], [-4.0661134, 5.421298499999988], [-4.0667158, 5.421286299999983], [-4.0743947, 5.421130399999988], [-4.0904004, 5.42116669999997], [-4.089208, 5.440135099999977], [-4.0761921, 5.457036699999986], [-4.016139, 5.460790399999989], [-4.0156162, 5.4606114], [-4.0145425, 5.460243899999979], [-4.0241045, 5.441943099999989], [-4.016182, 5.4104524], [-4.0196031, 5.397623199999981]]]}}, {"type": "Feature", "properties": {"nom": "Anyama", "name": "Anyama", "area_id": "CIV_2_003ou", "area_name": "Anyama", "parent_area_id": "CIV_1_01df", "area_level_label": "District Sanitaire"}, "geometry": {"type": "Polygon", "coordinates": [[[-4.2273047, 5.6057218], [-4.2019007, 5.604550099999982], [-4.2018885, 5.604545599999989], [-4.1949233, 5.604818299999969], [-4.194918, 5.604826799999989], [-4.1910588, 5.607475499999987], [-4.1910535, 5.607487399999986], [-4.1890611, 5.608319599999976], [-4.1890474, 5.6083077], [-4.1753984, 5.607110899999985], [-4.175385, 5.607119499999978], [-4.1741571, 5.605894199999988], [-4.1726708, 5.60447559999998], [-4.1726579, 5.6044637], [-4.1646622, 5.605350699999977], [-4.1646579, 5.6053542], [-4.1622411, 5.6044844], [-4.1622295, 5.604485799999989], [-4.1608385, 5.603479599999986], [-4.1608133, 5.6034378], [-4.1587151, 5.600944], [-4.1586842, 5.600905799999969], [-4.1577069, 5.600389299999975], [-4.1576647, 5.600383099999981], [-4.1563183, 5.600600799999984], [-4.1545836, 5.601474], [-4.1538889, 5.601371], [-4.1524976, 5.600225599999981], [-4.1515531, 5.599783], [-4.1515243, 5.5997752], [-4.1495168, 5.6000202], [-4.1495107, 5.6000227], [-4.1481797, 5.600722399999979], [-4.148123, 5.6007561], [-4.146736, 5.601837299999988], [-4.146727, 5.601833099999989], [-4.1453309, 5.6021273], [-4.1453128, 5.602118499999988], [-4.1435063, 5.601808899999988], [-4.1434971, 5.601810199999973], [-4.1350772, 5.596229399999974], [-4.1350221, 5.596189], [-4.1326588, 5.5952542], [-4.1326602, 5.595242899999979], [-4.1269845, 5.5943502], [-4.1269619, 5.5943606], [-4.1186265, 5.590576399999987], [-4.1137207, 5.5889583], [-4.1136477, 5.5889242], [-4.1093434, 5.5880619], [-4.1093106, 5.58805779999998], [-4.1045175, 5.588662499999974], [-4.0995171, 5.588811099999987], [-4.0995063, 5.588805099999989], [-4.085667, 5.5920378], [-4.0698969, 5.589944399999969], [-4.0698872, 5.589938499999982], [-4.0628485, 5.5915546], [-4.0497599, 5.594580899999969], [-4.0486177, 5.59485379999997], [-4.0464178, 5.595352699999973], [-4.0351295, 5.59795949999998], [-4.0321286, 5.598640699999984], [-4.0270726, 5.599868599999982], [-4.0270604, 5.599867399999982], [-4.0216024, 5.596641199999978], [-4.0215965, 5.596642199999983], [-3.9524173, 5.593139], [-3.9389378, 5.594987299999988], [-3.9233328, 5.574085799999987], [-3.9249286, 5.563497099999981], [-3.899698, 5.552365599999973], [-3.874027, 5.5210921], [-3.8708964, 5.503051799999987], [-3.8520682, 5.511737699999983], [-3.8346721, 5.488074499999984], [-3.8347773, 5.458520899999985], [-3.8153223, 5.417869299999984], [-3.8255944, 5.403762399999989], [-3.8410872, 5.415625699999969], [-3.8487338, 5.412244399999978], [-3.8704352, 5.426690099999981], [-3.8740298, 5.446420799999979], [-3.8892349, 5.4542159], [-3.9130666, 5.454832599999989], [-3.916749, 5.42855009999997], [-3.9291903, 5.4311159], [-3.9544748, 5.4603747], [-3.9545038, 5.4604008], [-3.9551204, 5.460955099999974], [-3.9600118, 5.465954099999982], [-4.0039339, 5.467691199999979], [-4.0145425, 5.460243899999979], [-4.0156162, 5.4606114], [-4.016139, 5.460790399999989], [-4.0761921, 5.457036699999986], [-4.089208, 5.440135099999977], [-4.1418852, 5.4410431], [-4.135102, 5.4167482], [-4.1574021, 5.40622429999998], [-4.1629791, 5.419889799999983], [-4.1792149, 5.442460499999989], [-4.189472, 5.442401], [-4.1971097, 5.4169857], [-4.209089, 5.408754699999976], [-4.2267635, 5.4142745], [-4.2366519, 5.436625899999973], [-4.2313664, 5.452912299999973], [-4.2102389, 5.467624], [-4.2111651, 5.4926144], [-4.2431773, 5.503609699999982], [-4.2513095, 5.5158007], [-4.259822, 5.540985599999975], [-4.2560541, 5.566594099999987], [-4.2608807, 5.5761102], [-4.2564541, 5.5853026], [-4.2606986, 5.601840299999974], [-4.2604084, 5.601891], [-4.2603816, 5.601902599999984], [-4.2596815, 5.602096599999988], [-4.2596726, 5.6020979], [-4.2565439, 5.604347899999977], [-4.255358, 5.605208799999986], [-4.2543359, 5.6058977], [-4.2541987, 5.605986699999986], [-4.2505883, 5.60770479999997], [-4.2482711, 5.608842499999985], [-4.248261, 5.608854899999986], [-4.2273047, 5.6057218]]]}}, {"type": "Feature", "properties": {"nom": "Yopougon-Est", "name": "Yopougon-Est", "area_id": "CIV_2_004nq", "area_name": "Yopougon-Est", "parent_area_id": "CIV_1_01df", "area_level_label": "District Sanitaire"}, "geometry": {"type": "Polygon", "coordinates": [[[-4.0751004, 5.2389451], [-4.0786649, 5.3181315], [-4.0736869, 5.3274009], [-4.0739871, 5.356433799999985], [-4.0837327, 5.360171], [-4.0739533, 5.378911099999988], [-4.051508, 5.354400899999972], [-4.0540466, 5.334900599999985], [-4.044606, 5.327693699999984], [-4.0421251, 5.3007215], [-4.0321288, 5.305249], [-4.0219715, 5.294451899999987], [-4.0219311, 5.2697815], [-4.0568896, 5.26955339999997], [-4.0577257, 5.240816899999981], [-4.0751004, 5.2389451]]]}}, {"type": "Feature", "properties": {"nom": "Yopougon-Ouest-Songon", "name": "Yopougon-Ouest-Songon", "area_id": "CIV_2_005pp", "area_name": "Yopougon-Ouest-Songon", "parent_area_id": "CIV_1_01df", "area_level_label": "District Sanitaire"}, "geometry": {"type": "Polygon", "coordinates": [[[-4.2608807, 5.5761102], [-4.2560541, 5.566594099999987], [-4.259822, 5.540985599999975], [-4.2513095, 5.5158007], [-4.2431773, 5.503609699999982], [-4.2111651, 5.4926144], [-4.2102389, 5.467624], [-4.2313664, 5.452912299999973], [-4.2366519, 5.436625899999973], [-4.2267635, 5.4142745], [-4.209089, 5.408754699999976], [-4.1971097, 5.4169857], [-4.189472, 5.442401], [-4.1792149, 5.442460499999989], [-4.1629791, 5.419889799999983], [-4.1574021, 5.40622429999998], [-4.135102, 5.4167482], [-4.1418852, 5.4410431], [-4.089208, 5.440135099999977], [-4.0904004, 5.42116669999997], [-4.0743947, 5.421130399999988], [-4.0667158, 5.421286299999983], [-4.0661134, 5.421298499999988], [-4.07414, 5.414774799999987], [-4.0764605, 5.407421299999968], [-4.0868289, 5.397520399999976], [-4.0744455, 5.389035699999969], [-4.0739533, 5.378911099999988], [-4.0837327, 5.360171], [-4.0739871, 5.356433799999985], [-4.0736869, 5.3274009], [-4.0786649, 5.3181315], [-4.0751004, 5.2389451], [-4.2118037, 5.2212925], [-4.22794, 5.280849], [-4.2731436, 5.278435099999983], [-4.2908641, 5.312445599999974], [-4.3100007, 5.399833199999979], [-4.3120239, 5.4208117], [-4.2853932, 5.4343678], [-4.2816629, 5.452221199999978], [-4.2974054, 5.4661922], [-4.3021713, 5.4806978], [-4.2972528, 5.495501499999987], [-4.3315562, 5.5051837], [-4.3426292, 5.5164573], [-4.3604807, 5.5235637], [-4.3759299, 5.5212625], [-4.4083078, 5.529451699999989], [-4.42812, 5.5282236], [-4.4518164, 5.540875799999981], [-4.4518283, 5.5408794], [-4.4518173, 5.540886899999984], [-4.3863843, 5.6005721], [-4.3863799, 5.600568699999987], [-4.3822092, 5.598273099999971], [-4.3822055, 5.59829279999998], [-4.3739525, 5.5937736], [-4.3710974, 5.5922486], [-4.3574104, 5.584762], [-4.3574019, 5.5847599], [-4.3447883, 5.5869846], [-4.3273908, 5.5900553], [-4.3089057, 5.593332299999984], [-4.2927309, 5.596195], [-4.2740411, 5.599471399999969], [-4.2606986, 5.601840299999974], [-4.2604084, 5.601891], [-4.2603816, 5.601902599999984], [-4.2596815, 5.602096599999988], [-4.2596726, 5.6020979], [-4.2564541, 5.5853026], [-4.2608807, 5.5761102]]]}}, {"type": "Feature", "properties": {"nom": "Adjame-Plateau-Attecoube", "name": "Adjame-Plateau-Attecoube", "area_id": "CIV_2_006tw", "area_name": "Adjame-Plateau-Attecoube", "parent_area_id": "CIV_1_02rc", "area_level_label": "District Sanitaire"}, "geometry": {"type": "Polygon", "coordinates": [[[-4.0196031, 5.397623199999981], [-4.0061587, 5.3842271], [-4.0168881, 5.3630177], [-4.014048, 5.328747899999975], [-4.0044866, 5.318662099999987], [-4.0256424, 5.311193899999978], [-4.0321288, 5.305249], [-4.0421251, 5.3007215], [-4.044606, 5.327693699999984], [-4.0540466, 5.334900599999985], [-4.051508, 5.354400899999972], [-4.0739533, 5.378911099999988], [-4.0744455, 5.389035699999969], [-4.0868289, 5.397520399999976], [-4.0764605, 5.407421299999968], [-4.07414, 5.414774799999987], [-4.0667158, 5.421286299999983], [-4.0661134, 5.421298499999988], [-4.0481397, 5.420625199999979], [-4.0316431, 5.4108742], [-4.0196031, 5.397623199999981]]]}}, {"type": "Feature", "properties": {"nom": "Cocody-Bingerville", "name": "Cocody-Bingerville", "area_id": "CIV_2_007ha", "area_name": "Cocody-Bingerville", "parent_area_id": "CIV_1_02rc", "area_level_label": "District Sanitaire"}, "geometry": {"type": "MultiPolygon", "coordinates": [[[[-3.718939463374554, 5.299960056603449], [-3.7170927, 5.300673099999976], [-3.7171345, 5.300646699999983], [-3.7189404, 5.2999472], [-3.718939463374554, 5.299960056603449]]], [[[-3.8255944, 5.403762399999989], [-3.827248, 5.375609599999987], [-3.8153182, 5.383025599999986], [-3.8023265, 5.382141499999978], [-3.7857815, 5.369668499999984], [-3.7754157, 5.3754628], [-3.7632519, 5.36951059999998], [-3.7553715, 5.353886599999982], [-3.7663999, 5.34492149999998], [-3.7454326, 5.328163499999989], [-3.7406817, 5.309707], [-3.7310639, 5.305242699999976], [-3.7236681, 5.3048163], [-3.7202704, 5.3028], [-3.7188117, 5.301713799999989], [-3.718939463374554, 5.299960056603449], [-3.723197, 5.298316199999979], [-3.7250033, 5.297623899999985], [-3.7311927, 5.295231799999981], [-3.7346748, 5.293877699999986], [-3.7463299, 5.289414099999985], [-3.7851956, 5.274418], [-3.7852363, 5.274406399999974], [-3.7858324, 5.274126599999982], [-3.8098091, 5.2900188], [-3.8098153, 5.290022599999974], [-3.8122181, 5.290357899999981], [-3.8162001, 5.291046699999987], [-3.8312096, 5.293882899999989], [-3.8551945, 5.297587299999982], [-3.8765241, 5.306579599999985], [-3.9094741, 5.306549199999989], [-3.9179227, 5.321544], [-3.9314228, 5.324397399999985], [-3.9558411, 5.317758], [-3.9934733, 5.323531], [-4.0044866, 5.318662099999987], [-4.014048, 5.328747899999975], [-4.0168881, 5.3630177], [-4.0061587, 5.3842271], [-3.9846058, 5.429824599999984], [-3.9728545, 5.4478724], [-3.9551204, 5.460955099999974], [-3.9545038, 5.4604008], [-3.9544748, 5.4603747], [-3.9291903, 5.4311159], [-3.916749, 5.42855009999997], [-3.9130666, 5.454832599999989], [-3.8892349, 5.4542159], [-3.8740298, 5.446420799999979], [-3.8704352, 5.426690099999981], [-3.8487338, 5.412244399999978], [-3.8410872, 5.415625699999969], [-3.8255944, 5.403762399999989]]]]}}, {"type": "Feature", "properties": {"nom": "Koumassi", "name": "Koumassi", "area_id": "CIV_2_008wj", "area_name": "Koumassi", "parent_area_id": "CIV_1_02rc", "area_level_label": "District Sanitaire"}, "geometry": {"type": "Polygon", "coordinates": [[[-3.9645249, 5.273603], [-3.9750947, 5.292538599999986], [-3.9558411, 5.317758], [-3.9314228, 5.324397399999985], [-3.9179227, 5.321544], [-3.9094741, 5.306549199999989], [-3.932891, 5.299248], [-3.946508, 5.281704], [-3.9645249, 5.273603]]]}}, {"type": "Feature", "properties": {"nom": "Port-Bouet-Vridi", "name": "Port-Bouet-Vridi", "area_id": "CIV_2_009cc", "area_name": "Port-Bouet-Vridi", "parent_area_id": "CIV_1_02rc", "area_level_label": "District Sanitaire"}, "geometry": {"type": "Polygon", "coordinates": [[[-4.0577257, 5.240816899999981], [-4.0568896, 5.26955339999997], [-4.0219311, 5.2697815], [-4.0115465, 5.2695858], [-3.9925039, 5.283516599999986], [-3.9879883, 5.277471699999987], [-3.9741939, 5.266260699999983], [-3.9645249, 5.273603], [-3.946508, 5.281704], [-3.932891, 5.299248], [-3.9094741, 5.306549199999989], [-3.8765241, 5.306579599999985], [-3.8551945, 5.297587299999982], [-3.8312096, 5.293882899999989], [-3.8162001, 5.291046699999987], [-3.8122181, 5.290357899999981], [-3.8098153, 5.290022599999974], [-3.8098091, 5.2900188], [-3.8123607, 5.2863549], [-3.8123474, 5.286352699999977], [-3.8157315, 5.2815047], [-3.8180966, 5.278066], [-3.8204618, 5.274681], [-3.8223931, 5.271879399999982], [-3.8224261, 5.271860199999987], [-3.8230636, 5.267967499999981], [-3.8213177, 5.263782699999981], [-3.8194175, 5.261793899999987], [-3.8194007, 5.261772199999983], [-3.8189974, 5.2605381], [-3.8190087, 5.260511], [-3.8189855, 5.258968], [-3.819376, 5.257321599999983], [-3.818443, 5.253458799999984], [-3.8184393, 5.253452899999983], [-3.8187264, 5.251884199999981], [-3.8187318, 5.251869], [-3.8190466, 5.2510609], [-3.819042, 5.251043299999974], [-3.8196417, 5.250345399999985], [-3.8196523, 5.250308799999983], [-3.8205442, 5.2500214], [-3.8205611, 5.250025199999971], [-3.8222864, 5.250305299999982], [-3.8222934, 5.250305299999982], [-3.8461074, 5.2524657], [-3.8461018, 5.252455899999972], [-3.8506926, 5.242718099999987], [-3.8576224, 5.227908099999976], [-3.8576319, 5.227896599999968], [-3.8576678, 5.2277165], [-3.8601192, 5.228627099999981], [-3.8648781, 5.230182699999985], [-3.8735138, 5.2328428], [-3.8989665, 5.238397599999989], [-3.9520219, 5.246951899999989], [-3.9697888, 5.253995199999983], [-3.9938397, 5.2540806], [-4.0100837, 5.243279499999983], [-4.0577257, 5.240816899999981]]]}}, {"type": "Feature", "properties": {"nom": "Treichville-Marcory", "name": "Treichville-Marcory", "area_id": "CIV_2_010vd", "area_name": "Treichville-Marcory", "parent_area_id": "CIV_1_02rc", "area_level_label": "District Sanitaire"}, "geometry": {"type": "Polygon", "coordinates": [[[-3.9645249, 5.273603], [-3.9741939, 5.266260699999983], [-3.9879883, 5.277471699999987], [-3.9925039, 5.283516599999986], [-4.0115465, 5.2695858], [-4.0219311, 5.2697815], [-4.0219715, 5.294451899999987], [-4.0321288, 5.305249], [-4.0256424, 5.311193899999978], [-4.0044866, 5.318662099999987], [-3.9934733, 5.323531], [-3.9558411, 5.317758], [-3.9750947, 5.292538599999986], [-3.9645249, 5.273603]]]}}]}